*******************************************************************************
Ephemeris / WWW_USER Mon Mar 24 09:03:11 2025 Pasadena, USA      / Horizons    
*******************************************************************************
Target body name: (2017 UX51)                     {source: JPL#22}
Center body name: Earth (399)                     {source: DE441}
Center-site name: Mauna Kea
*******************************************************************************
Start time      : A.D. 2018-Dec-24 03:59:00.0000 UT      
Stop  time      : A.D. 2018-Dec-24 16:43:00.0000 UT      
Step-size       : 1 minutes
*******************************************************************************
Target pole/equ : undefined
Target radii    : undefined                                                    
Center geodetic : 204.5278, 19.8260847, 4.21024   {E-lon(deg),Lat(deg),Alt(km)}
Center cylindric: 204.5278, 6006.35451, 2151.0229 {E-lon(deg),Dxy(km),Dz(km)}
Center pole/equ : ITRF93                          {East-longitude positive}
Center radii    : 6378.137, 6378.137, 6356.752 km {Equator_a, b, pole_c}       
Target primary  : Sun
Vis. interferer : MOON (R_eq= 1737.400) km        {source: DE441}
Rel. light bend : Sun                             {source: DE441}
Rel. lght bnd GM: 1.3271E+11 km^3/s^2                                          
Small-body perts: Yes                             {source: SB441-N16}
Atmos refraction: NO (AIRLESS)
RA format       : HMS
Time format     : CAL 
Calendar mode   : Mixed Julian/Gregorian
RTS-only print  : NO       
EOP file        : eop.250321.p250617                                           
EOP coverage    : DATA-BASED 1962-JAN-20 TO 2025-MAR-21. PREDICTS-> 2025-JUN-16
Units conversion: 1 au= 149597870.700 km, c= 299792.458 km/s, 1 day= 86400.0 s 
Table cut-offs 1: Elevation (-90.0deg=NO ),Airmass (>38.000=NO), Daylight (YES)
Table cut-offs 2: Solar elongation (  0.0,180.0=NO ),Local Hour Angle( 0.0=NO )
Table cut-offs 3: RA/DEC angular rate (     0.0=NO )                           
*******************************************************************************
Initial IAU76/J2000 heliocentric ecliptic osculating elements (au, days, deg.):
  EPOCH=  2458433.5 ! 2018-Nov-11.00 (TDB)         Residual RMS= .12444        
   EC= .7474905367293002   QR= 7.612253692784782   TP= 2459819.8104231078      
   OM= 217.7952286585891   W=  255.0338939179157   IN= 90.52400691057457       
  Equivalent ICRF heliocentric cartesian coordinates (au, au/d):
   X= 8.209785034050050E+00  Y= 6.297741083246843E+00  Z= 1.446459094674425E+00
  VX=-3.080259200599625E-03 VY=-2.498125597102637E-05 VZ=-6.110805734701701E-03
Asteroid physical parameters (km, seconds, rotational period in hours):        
   GM= n.a.                RAD= n.a.               ROTPER= n.a.                
   H= 11.                  G= .150                 B-V= n.a.                   
                           ALBEDO= n.a.            STYP= n.a.                  
*******************************************************************************
 Date__(UT)__HR:MN     R.A._________(ICRF)_________DEC
******************************************************
$$SOE
 2018-Dec-24 10:08  m  02 14 27.431244 +04 38 14.12363
 2018-Dec-24 10:09  m  02 14 27.423829 +04 38 14.02376
 2018-Dec-24 10:10  m  02 14 27.416415 +04 38 13.92390
 2018-Dec-24 10:11  m  02 14 27.409002 +04 38 13.82403
 2018-Dec-24 10:12  m  02 14 27.401590 +04 38 13.72417
 2018-Dec-24 10:13  m  02 14 27.394179 +04 38 13.62430
 2018-Dec-24 10:14  m  02 14 27.386770 +04 38 13.52444
 2018-Dec-24 10:15  m  02 14 27.379361 +04 38 13.42458
 2018-Dec-24 10:16  m  02 14 27.371954 +04 38 13.32471
 2018-Dec-24 10:17  m  02 14 27.364547 +04 38 13.22485
 2018-Dec-24 10:18  m  02 14 27.357142 +04 38 13.12499
 2018-Dec-24 10:19  m  02 14 27.349738 +04 38 13.02513
 2018-Dec-24 10:20  m  02 14 27.342335 +04 38 12.92527
 2018-Dec-24 10:21  m  02 14 27.334932 +04 38 12.82541
 2018-Dec-24 10:22  m  02 14 27.327532 +04 38 12.72555
 2018-Dec-24 10:23  m  02 14 27.320132 +04 38 12.62569
 2018-Dec-24 10:24  m  02 14 27.312733 +04 38 12.52583
 2018-Dec-24 10:25  m  02 14 27.305335 +04 38 12.42598
 2018-Dec-24 10:26  m  02 14 27.297939 +04 38 12.32612
 2018-Dec-24 10:27  m  02 14 27.290544 +04 38 12.22626
 2018-Dec-24 10:28  m  02 14 27.283149 +04 38 12.12641
 2018-Dec-24 10:29  m  02 14 27.275756 +04 38 12.02655
 2018-Dec-24 10:30  m  02 14 27.268364 +04 38 11.92670
 2018-Dec-24 10:31  m  02 14 27.260973 +04 38 11.82685
 2018-Dec-24 10:32  m  02 14 27.253584 +04 38 11.72699
 2018-Dec-24 10:33  m  02 14 27.246195 +04 38 11.62714
 2018-Dec-24 10:34  m  02 14 27.238808 +04 38 11.52729
 2018-Dec-24 10:35  m  02 14 27.231421 +04 38 11.42744
 2018-Dec-24 10:36  m  02 14 27.224036 +04 38 11.32759
 2018-Dec-24 10:37  m  02 14 27.216652 +04 38 11.22774
 2018-Dec-24 10:38  m  02 14 27.209269 +04 38 11.12789
 2018-Dec-24 10:39  m  02 14 27.201887 +04 38 11.02804
 2018-Dec-24 10:40  m  02 14 27.194507 +04 38 10.92819
 2018-Dec-24 10:41  m  02 14 27.187127 +04 38 10.82835
 2018-Dec-24 10:42  m  02 14 27.179749 +04 38 10.72850
 2018-Dec-24 10:43  m  02 14 27.172372 +04 38 10.62865
 2018-Dec-24 10:44  m  02 14 27.164995 +04 38 10.52881
 2018-Dec-24 10:45  m  02 14 27.157621 +04 38 10.42897
 2018-Dec-24 10:46  m  02 14 27.150247 +04 38 10.32912
 2018-Dec-24 10:47  m  02 14 27.142874 +04 38 10.22928
 2018-Dec-24 10:48  m  02 14 27.135503 +04 38 10.12944
 2018-Dec-24 10:49  m  02 14 27.128133 +04 38 10.02960
 2018-Dec-24 10:50  m  02 14 27.120763 +04 38 09.92976
 2018-Dec-24 10:51  m  02 14 27.113396 +04 38 09.82992
 2018-Dec-24 10:52  m  02 14 27.106029 +04 38 09.73008
 2018-Dec-24 10:53  m  02 14 27.098663 +04 38 09.63024
 2018-Dec-24 10:54  m  02 14 27.091299 +04 38 09.53040
 2018-Dec-24 10:55  m  02 14 27.083936 +04 38 09.43056
 2018-Dec-24 10:56  m  02 14 27.076574 +04 38 09.33073
 2018-Dec-24 10:57  m  02 14 27.069213 +04 38 09.23089
 2018-Dec-24 10:58  m  02 14 27.061853 +04 38 09.13106
 2018-Dec-24 10:59  m  02 14 27.054494 +04 38 09.03123
 2018-Dec-24 11:00  m  02 14 27.047137 +04 38 08.93139
 2018-Dec-24 11:01  m  02 14 27.039781 +04 38 08.83156
 2018-Dec-24 11:02  m  02 14 27.032426 +04 38 08.73173
 2018-Dec-24 11:03  m  02 14 27.025072 +04 38 08.63190
 2018-Dec-24 11:04  m  02 14 27.017720 +04 38 08.53207
 2018-Dec-24 11:05  m  02 14 27.010368 +04 38 08.43224
 2018-Dec-24 11:06  m  02 14 27.003018 +04 38 08.33241
 2018-Dec-24 11:07  m  02 14 26.995669 +04 38 08.23259
 2018-Dec-24 11:08  m  02 14 26.988321 +04 38 08.13276
 2018-Dec-24 11:09  m  02 14 26.980975 +04 38 08.03294
 2018-Dec-24 11:10  m  02 14 26.973629 +04 38 07.93311
 2018-Dec-24 11:11  m  02 14 26.966285 +04 38 07.83329
 2018-Dec-24 11:12  m  02 14 26.958942 +04 38 07.73346
 2018-Dec-24 11:13  m  02 14 26.951600 +04 38 07.63364
 2018-Dec-24 11:14  m  02 14 26.944260 +04 38 07.53382
 2018-Dec-24 11:15  m  02 14 26.936920 +04 38 07.43400
 2018-Dec-24 11:16  m  02 14 26.929582 +04 38 07.33418
 2018-Dec-24 11:17  m  02 14 26.922245 +04 38 07.23436
 2018-Dec-24 11:18  m  02 14 26.914909 +04 38 07.13455
 2018-Dec-24 11:19  m  02 14 26.907575 +04 38 07.03473
 2018-Dec-24 11:20  m  02 14 26.900242 +04 38 06.93491
 2018-Dec-24 11:21  m  02 14 26.892909 +04 38 06.83510
 2018-Dec-24 11:22  m  02 14 26.885579 +04 38 06.73529
 2018-Dec-24 11:23  m  02 14 26.878249 +04 38 06.63547
 2018-Dec-24 11:24  m  02 14 26.870920 +04 38 06.53566
 2018-Dec-24 11:25  m  02 14 26.863593 +04 38 06.43585
 2018-Dec-24 11:26  m  02 14 26.856267 +04 38 06.33604
 2018-Dec-24 11:27  m  02 14 26.848942 +04 38 06.23623
 2018-Dec-24 11:28  m  02 14 26.841619 +04 38 06.13642
 2018-Dec-24 11:29  m  02 14 26.834297 +04 38 06.03661
 2018-Dec-24 11:30  m  02 14 26.826975 +04 38 05.93681
 2018-Dec-24 11:31  m  02 14 26.819656 +04 38 05.83700
 2018-Dec-24 11:32  m  02 14 26.812337 +04 38 05.73720
 2018-Dec-24 11:33  m  02 14 26.805020 +04 38 05.63740
 2018-Dec-24 11:34  m  02 14 26.797703 +04 38 05.53759
 2018-Dec-24 11:35  m  02 14 26.790388 +04 38 05.43779
 2018-Dec-24 11:36  m  02 14 26.783075 +04 38 05.33799
 2018-Dec-24 11:37  m  02 14 26.775762 +04 38 05.23819
 2018-Dec-24 11:38  m  02 14 26.768451 +04 38 05.13839
 2018-Dec-24 11:39  m  02 14 26.761141 +04 38 05.03860
 2018-Dec-24 11:40  m  02 14 26.753832 +04 38 04.93880
 2018-Dec-24 11:41  m  02 14 26.746525 +04 38 04.83900
 2018-Dec-24 11:42  m  02 14 26.739218 +04 38 04.73921
 2018-Dec-24 11:43  m  02 14 26.731913 +04 38 04.63942
 2018-Dec-24 11:44  m  02 14 26.724609 +04 38 04.53962
 2018-Dec-24 11:45  m  02 14 26.717307 +04 38 04.43983
 2018-Dec-24 11:46  m  02 14 26.710006 +04 38 04.34004
 2018-Dec-24 11:47  m  02 14 26.702706 +04 38 04.24025
 2018-Dec-24 11:48  m  02 14 26.695407 +04 38 04.14047
 2018-Dec-24 11:49  m  02 14 26.688109 +04 38 04.04068
 2018-Dec-24 11:50  m  02 14 26.680813 +04 38 03.94089
 2018-Dec-24 11:51  m  02 14 26.673518 +04 38 03.84111
 2018-Dec-24 11:52  m  02 14 26.666224 +04 38 03.74132
 2018-Dec-24 11:53  m  02 14 26.658931 +04 38 03.64154
 2018-Dec-24 11:54  m  02 14 26.651640 +04 38 03.54176
 2018-Dec-24 11:55  m  02 14 26.644350 +04 38 03.44198
 2018-Dec-24 11:56  m  02 14 26.637061 +04 38 03.34220
 2018-Dec-24 11:57  m  02 14 26.629773 +04 38 03.24242
 2018-Dec-24 11:58  m  02 14 26.622487 +04 38 03.14265
 2018-Dec-24 11:59  m  02 14 26.615202 +04 38 03.04287
 2018-Dec-24 12:00  m  02 14 26.607918 +04 38 02.94309
 2018-Dec-24 12:01  m  02 14 26.600635 +04 38 02.84332
 2018-Dec-24 12:02  m  02 14 26.593354 +04 38 02.74355
 2018-Dec-24 12:03  m  02 14 26.586074 +04 38 02.64378
 2018-Dec-24 12:04  m  02 14 26.578795 +04 38 02.54401
 2018-Dec-24 12:05  m  02 14 26.571518 +04 38 02.44424
 2018-Dec-24 12:06  m  02 14 26.564241 +04 38 02.34447
 2018-Dec-24 12:07  m  02 14 26.556966 +04 38 02.24470
 2018-Dec-24 12:08  m  02 14 26.549692 +04 38 02.14494
 2018-Dec-24 12:09  m  02 14 26.542420 +04 38 02.04517
 2018-Dec-24 12:10  m  02 14 26.535149 +04 38 01.94541
